SL-16 R/B               
1 28353U 04021B   25182.84751616  .00000301  00000+0  18162-3 0  9998
2 28353  71.0013  38.8865 0003483  44.5300 315.6102 14.14553488 87362
CZ-4B R/B               
1 28415U 04035C   25182.65932934  .00005439  00000+0  22087-3 0  9993
2 28415  97.3785 215.3537 0037153 134.3931 226.0359 15.24353605141614
CZ-2C R/B               
1 28480U 04046B   25182.80058323  .00000096  00000+0  50936-4 0  9994
2 28480  98.1934 108.4694 0139715 176.3009 183.9240 14.26839481 72723
ARIANE 5 R/B            
1 28499U 04049H   25182.88958345  .00000755  00000+0  90762-4 0  9991
2 28499  98.2358 337.5363 0086595  83.8837 277.2234 14.84547055108570
CZ-2D R/B               
1 28738U 05024B   25182.73426260  .00014044  00000+0  30728-3 0  9992
2 28738  97.3676 187.0242 0005267 202.2758 157.8262 15.44239675100882
ALOS (DAICHI)           
1 28931U 06002A   25182.88985174  .00001142  00000+0  20419-3 0  9995
2 28931  98.0847 135.8895 0001818  59.0585 301.0799 14.68767831 37033
H-2A R/B                
1 28932U 06002B   25182.85780130  .00004421  00000+0  25756-3 0  9990
2 28932  98.2140 304.9696 0058439  13.2348 347.0397 15.11156430 56491
RESURS-DK 1             
1 29228U 06021A   25182.37970471  .00001804  00000+0  11398-3 0  9995
2 29228  69.9314 166.1745 0003954 187.8628 172.2476 15.11040422 49549
GENESIS 1               
1 29252U 06029A   25182.77684554  .03224014  77837-5  47195-3 0  9993
2 29252  64.4845 280.5552 0020693 285.9484 170.3134 16.33393934 49893
CZ-4B R/B               
1 29507U 06046C   25182.81156529  .00003570  00000+0  19758-3 0  9991
2 29507  97.5941 223.3881 0036774  56.5931 303.8809 15.13927517 22054
CZ-2C R/B               
1 31114U 07010B   25182.84172914  .00000088  00000+0  59911-4 0  9996
2 31114  98.3815 303.9105 0058048 304.2973  55.2717 14.20133146944111
COSMO-SKYMED 1          
1 31598U 07023A   25182.86951653  .00000809  00000+0  81034-4 0  9995
2 31598  97.8880   7.3602 0001480  86.3788 273.7601 14.94154785977411
GENESIS 2               
1 31789U 07028A   25182.91859514  .00096968  00000+0  43883-3 0  9991
2 31789  64.4741 337.1872 0024181 301.1141  58.7641 15.83000552996446
COSMOS 2428             
1 31792U 07029A   25182.91267040  .00000374  00000+0  22673-3 0  9993
2 31792  70.9400   9.7602 0005462 254.0007 106.0512 14.12872832928678
SL-16 R/B               
1 31793U 07029B   25182.86315484  .00000069  00000+0  60559-4 0  9991
2 31793  70.9758 339.6174 0001969 278.0324 187.4738 14.14783904929891
KORONAS-FOTON           
1 33504U 09003A   25182.42143072  .00007094  00000+0  19475-3 0  9996
2 33504  82.4321 175.6867 0011000 347.6664  12.4309 15.36995556907071
CZ-2C R/B               
1 37731U 11030B   25182.90346791  .00001016  00000+0  13705-3 0  9999
2 37731  97.8154 141.0021 0055054  86.4641 338.5974 14.80243672752981
H-2A R/B                
1 38341U 12025E   25182.84864585  .00002786  00000+0  26805-3 0  9991
2 38341  98.4370 125.9138 0047555  53.5354 307.0232 14.93089161710762
SHIJIAN-16 (SJ-16)      
1 39358U 13057A   25182.88241642  .00001268  00000+0  12955-3 0  9998
2 39358  74.9727 299.5107 0017209 359.3709   0.7453 14.91405359634175
SL-4 R/B                
1 39679U 14021B   25181.84076245  .00006449  00000+0  18124-3 0  9996
2 39679  51.6086 118.5308 0111304 270.1791  88.6436 15.31887510617586
ALOS-2                  
1 39766U 14029A   25182.86863406  .00001179  00000+0  16474-3 0  9998
2 39766  97.9226 280.0603 0001624  98.7955 261.3440 14.79472917599782
YAOGAN-29               
1 41038U 15069A   25182.90316845  .00000334  00000+0  48197-4 0  9993
2 41038  98.0336 205.3914 0002960  87.3190 272.8361 14.82655032518713
ASTRO-H (HITOMI)        
1 41337U 16012A   25182.67393654  .00001777  00000+0  10641-3 0  9995
2 41337  30.9984 173.9022 0010017 331.0157  28.9924 15.08114994514282
HXMT (HUIYAN)           
1 42758U 17034A   25182.75355562  .00004592  00000+0  25795-3 0  9997
2 42758  43.0157 327.8357 0033321  91.6064 268.8600 15.13974515444464
CZ-2C R/B               
1 43521U 18054D   25182.10179189  .00021701  00000+0  32670-3 0  9998
2 43521  35.1372 195.5538 0030970  21.0753 339.1243 15.53289429389318
SAOCOM 1A               
1 43641U 18076A   25182.89132306  .00000315  00000+0  46080-4 0  9990
2 43641  97.8888   9.6586 0001398  90.6427 269.4946 14.82152075364212
H-2A R/B                
1 43682U 18084L   25182.41028394  .00011985  00000+0  39769-3 0  9993
2 43682  98.8781 343.4922 0032416 167.2585 192.9478 15.30939194367216
SAOCOM 1B               
1 46265U 20059A   25182.92256789  .00000296  00000+0  43778-4 0  9994
2 46265  97.8891   8.7925 0001548  92.9164 267.2227 14.82157112261602
CSS (TIANHE)            
1 48274U 21035A   25182.66827599  .00019966  00000+0  24738-3 0  9993
2 48274  41.4642 292.7326 0005727 229.8363 130.1974 15.59566939238414
COSMOS 2550             
1 48865U 21056A   25182.85942688  .00004180  00000+0  13277-3 0  9998
2 48865  67.1428  79.7175 0008415 269.3219  90.6971 15.33838227224997
CZ-2C R/B               
1 52794U 22058K   25182.64647624  .00011328  00000+0  26947-3 0  9996
2 52794  50.1927 154.3206 0055493 236.0816 123.4865 15.40507192171288
GSLV R/B                
1 54149U 22138AN  25182.91215575  .00001668  00000+0  14981-3 0  9998
2 54149  87.3784 250.3314 0021497 348.7442  11.3305 14.94896680146442
XRISM                   
1 57800U 23137A   25182.47454683  .00004049  00000+0  24947-3 0  9990
2 57800  31.0019 104.1347 0007878  34.7627 325.3524 15.08215556 99791
ACS3                    
1 59588U 24077B   25182.91645422  .00009819  00000+0  94977-2 0  9990
2 59588  97.4611 174.1195 0072693  70.6349 290.2649 13.78697867 59524
